[{"OBJECT_NAME":"STARLINK-32382","OBJECT_ID":"2024-175R","EPOCH":"2026-03-09T13:34:44.591232","MEAN_MOTION":15.30201487,"ECCENTRICITY":0.0001075,"INCLINATION":53.1598,"RA_OF_ASC_NODE":194.6837,"ARG_OF_PERICENTER":81.8402,"MEAN_ANOMALY":278.272,"EPHEMERIS_TYPE":0,"CLASSIFICATION_TYPE":"U","NORAD_CAT_ID":61258,"ELEMENT_SET_NO":999,"REV_AT_EPOCH":8143,"BSTAR":-3.4919e-5,"MEAN_MOTION_DOT":-1.393e-5,"MEAN_MOTION_DDOT":0},{"OBJECT_NAME":"OBJECT M","OBJECT_ID":"2025-155M","EPOCH":"2026-03-09T22:37:12.666144","MEAN_MOTION":15.33288683,"ECCENTRICITY":0.00088001,"INCLINATION":97.4429,"RA_OF_ASC_NODE":38.1052,"ARG_OF_PERICENTER":139.1253,"MEAN_ANOMALY":221.0651,"EPHEMERIS_TYPE":0,"CLASSIFICATION_TYPE":"U","NORAD_CAT_ID":64887,"ELEMENT_SET_NO":999,"REV_AT_EPOCH":6565,"BSTAR":0.00087834095,"MEAN_MOTION_DOT":0.00028279,"MEAN_MOTION_DDOT":0}]
